{"type": "FeatureCollection", "features": [ {"type": "Feature", "properties": {"norad_id": 31025, "name": "FENGYUN 1C DEB", "group": "fengyun-1c-debris", "lat": -41.287106042831155, "lon": 150.84187780207836, "alt_km": 933.4232973322778, "timestamp": "2025-12-14T07:33:19.758091+00:00", "meta": {"OBJECT_NAME": "FENGYUN 1C DEB", "OBJECT_ID": "1999-025BDT", "EPOCH": "2025-12-07T05:28:07.771008", "MEAN_MOTION": 14.20521805, "ECCENTRICITY": 0.01734931, "INCLINATION": 98.58, "RA_OF_ASC_NODE": 331.5793, "ARG_OF_PERICENTER": 28.741, "MEAN_ANOMALY": 332.3194, "EPHEMERIS_TYPE": 0, "CLASSIFICATION_TYPE": "U", "NORAD_CAT_ID": 31025, "ELEMENT_SET_NO": 999, "REV_AT_EPOCH": 64287, "BSTAR": 0.0012507545, "MEAN_MOTION_DOT": 3.084e-05, "MEAN_MOTION_DDOT": 0}, "tle": {"line1": "1 31025U 99025BDT 25341.22786772  .00003084  00000+0  12508-2 0  9994", "line2": "2 31025  98.5800 331.5793 0173493  28.7410 332.3194 14.20521805642873"}}, "geometry": {"type": "Point", "coordinates": [150.84187780207836, -41.287106042831155]}}, {"type": "Feature", "properties": {"norad_id": 31026, "name": "FENGYUN 1C DEB", "group": "fengyun-1c-debris", "lat": 16.268571260624107, "lon": -78.81357687285036, "alt_km": 1045.753066127968, "timestamp": "2025-12-14T07:33:19.758102+00:00", "meta": {"OBJECT_NAME": "FENGYUN 1C DEB", "OBJECT_ID": "1999-025BDU", "EPOCH": "2025-12-13T02:04:12.876096", "MEAN_MOTION": 13.83399044, "ECCENTRICITY": 0.01343368, "INCLINATION": 98.7794, "RA_OF_ASC_NODE": 282.6242, "ARG_OF_PERICENTER": 181.5874, "MEAN_ANOMALY": 200.3183, "EPHEMERIS_TYPE": 0, "CLASSIFICATION_TYPE": "U", "NORAD_CAT_ID": 31026, "ELEMENT_SET_NO": 999, "REV_AT_EPOCH": 68031, "BSTAR": 0.00024350793, "MEAN_MOTION_DOT": 2.47e-06, "MEAN_MOTION_DDOT": 0}, "tle": {"line1": "1 31026U 99025BDU 25347.08626014  .00000247  00000+0  24351-3 0  9995", "line2": "2 31026  98.7794 282.6242 0134336 181.5874 200.3183 13.83399044680317"}}, "geometry": {"type": "Point", "coordinates": [-78.81357687285036, 16.268571260624107]}}, {"type": "Feature", "properties": {"norad_id": 31028, "name": "FENGYUN 1C DEB", "group": "fengyun-1c-debris", "lat": 57.964281488200015, "lon": -94.110129889522, "alt_km": 1000.8761950179505, "timestamp": "2025-12-14T07:33:19.758112+00:00", "meta": {"OBJECT_NAME": "FENGYUN 1C DEB", "OBJECT_ID": "1999-025BDW", "EPOCH": "2025-12-12T13:46:54.884640", "MEAN_MOTION": 13.89071845, "ECCENTRICITY": 0.01645799, "INCLINATION": 98.7056, "RA_OF_ASC_NODE": 278.4361, "ARG_OF_PERICENTER": 294.7979, "MEAN_ANOMALY": 63.6137, "EPHEMERIS_TYPE": 0, "CLASSIFICATION_TYPE": "U", "NORAD_CAT_ID": 31028, "ELEMENT_SET_NO": 999, "REV_AT_EPOCH": 62001, "BSTAR": 0.00049447042, "MEAN_MOTION_DOT": 6.27e-06, "MEAN_MOTION_DDOT": 0}, "tle": {"line1": "1 31028U 99025BDW 25346.57424635  .00000627  00000+0  49447-3 0  9990", "line2": "2 31028  98.7056 278.4361 0164579 294.7979  63.6137 13.89071845620012"}}, "geometry": {"type": "Point", "coordinates": [-94.110129889522, 57.964281488200015]}}, {"type": "Feature", "properties": {"norad_id": 31029, "name": "FENGYUN 1C DEB", "group": "fengyun-1c-debris", "lat": -53.99738891057385, "lon": 52.859671740050956, "alt_km": 846.7237214242323, "timestamp": "2025-12-14T07:33:19.758122+00:00", "meta": {"OBJECT_NAME": "FENGYUN 1C DEB", "OBJECT_ID": "1999-025BDX", "EPOCH": "2025-12-13T11:11:39.766272", "MEAN_MOTION": 14.34325057, "ECCENTRICITY": 0.00901184, "INCLINATION": 98.8585, "RA_OF_ASC_NODE": 244.3844, "ARG_OF_PERICENTER": 71.7234, "MEAN_ANOMALY": 104.7273, "EPHEMERIS_TYPE": 0, "CLASSIFICATION_TYPE": "U", "NORAD_CAT_ID": 31029, "ELEMENT_SET_NO": 999, "REV_AT_EPOCH": 97806, "BSTAR": 0.00050619896, "MEAN_MOTION_DOT": 1.442e-05, "MEAN_MOTION_DDOT": 0}, "tle": {"line1": "1 31029U 99025BDX 25347.46643248  .00001442  00000+0  50620-3 0  9994", "line2": "2 31029  98.8585 244.3844 0090118  71.7234 104.7273 14.34325057978060"}}, "geometry": {"type": "Point", "coordinates": [52.859671740050956, -53.99738891057385]}}, {"type": "Feature", "properties": {"norad_id": 31030, "name": "FENGYUN 1C DEB", "group": "fengyun-1c-debris", "lat": -4.6914042181106845, "lon": 50.95691005522933, "alt_km": 814.4097601585308, "timestamp": "2025-12-14T07:33:19.758135+00:00", "meta": {"OBJECT_NAME": "FENGYUN 1C DEB", "OBJECT_ID": "1999-025BDY", "EPOCH": "2025-12-13T15:26:16.887264", "MEAN_MOTION": 14.23678468, "ECCENTRICITY": 0.00276446, "INCLINATION": 98.7671, "RA_OF_ASC_NODE": 49.5621, "ARG_OF_PERICENTER": 81.6208, "MEAN_ANOMALY": 74.0912, "EPHEMERIS_TYPE": 0, "CLASSIFICATION_TYPE": "U", "NORAD_CAT_ID": 31030, "ELEMENT_SET_NO": 999, "REV_AT_EPOCH": 96717, "BSTAR": 0.0011746413, "MEAN_MOTION_DOT": 2.647e-05, "MEAN_MOTION_DDOT": 0}, "tle": {"line1": "1 31030U 99025BDY 25347.64325101  .00002647  00000+0  11746-2 0  9994", "line2": "2 31030  98.7671  49.5621 0027644  81.6208  74.0912 14.23678468967174"}}, "geometry": {"type": "Point", "coordinates": [50.95691005522933, -4.6914042181106845]}}, {"type": "Feature", "properties": {"norad_id": 31031, "name": "FENGYUN 1C DEB", "group": "fengyun-1c-debris", "lat": -16.61382506064853, "lon": -91.80817369879414, "alt_km": 845.6388284248351, "timestamp": "2025-12-14T07:33:19.758148+00:00", "meta": {"OBJECT_NAME": "FENGYUN 1C DEB", "OBJECT_ID": "1999-025BDZ", "EPOCH": "2025-12-11T05:59:48.395616", "MEAN_MOTION": 14.20980827, "ECCENTRICITY": 0.00276611, "INCLINATION": 99.0716, "RA_OF_ASC_NODE": 262.314, "ARG_OF_PERICENTER": 190.9459, "MEAN_ANOMALY": 322.1063, "EPHEMERIS_TYPE": 0, "CLASSIFICATION_TYPE": "U", "NORAD_CAT_ID": 31031, "ELEMENT_SET_NO": 999, "REV_AT_EPOCH": 96833, "BSTAR": 0.00066122667, "MEAN_MOTION_DOT": 1.392e-05, "MEAN_MOTION_DDOT": 0}, "tle": {"line1": "1 31031U 99025BDZ 25345.24986569  .00001392  00000+0  66123-3 0  9996", "line2": "2 31031  99.0716 262.3140 0027661 190.9459 322.1063 14.20980827968336"}}, "geometry": {"type": "Point", "coordinates": [-91.80817369879414, -16.61382506064853]}}, {"type": "Feature", "properties": {"norad_id": 31032, "name": "FENGYUN 1C DEB", "group": "fengyun-1c-debris", "lat": -74.66118132115602, "lon": 140.03713829963442, "alt_km": 851.3004027774168, "timestamp": "2025-12-14T07:33:19.758158+00:00", "meta": {"OBJECT_NAME": "FENGYUN 1C DEB", "OBJECT_ID": "1999-025BEA", "EPOCH": "2025-12-12T23:38:59.663328", "MEAN_MOTION": 14.02199905, "ECCENTRICITY": 0.01390144, "INCLINATION": 99.4007, "RA_OF_ASC_NODE": 355.8206, "ARG_OF_PERICENTER": 195.3689, "MEAN_ANOMALY": 193.9044, "EPHEMERIS_TYPE": 0, "CLASSIFICATION_TYPE": "U", "NORAD_CAT_ID": 31032, "ELEMENT_SET_NO": 999, "REV_AT_EPOCH": 94985, "BSTAR": 0.0018109189, "MEAN_MOTION_DOT": 2.97e-05, "MEAN_MOTION_DDOT": 0}, "tle": {"line1": "1 31032U 99025BEA 25346.98541277  .00002970  00000+0  18109-2 0  9995", "line2": "2 31032  99.4007 355.8206 0139014 195.3689 193.9044 14.02199905949853"}}, "geometry": {"type": "Point", "coordinates": [140.03713829963442, -74.66118132115602]}}, {"type": "Feature", "properties": {"norad_id": 31033, "name": "FENGYUN 1C DEB", "group": "fengyun-1c-debris", "lat": 81.24277446590048, "lon": -138.90229034701875, "alt_km": 685.1233098847861, "timestamp": "2025-12-14T07:33:19.758171+00:00", "meta": {"OBJECT_NAME": "FENGYUN 1C DEB", "OBJECT_ID": "1999-025BEB", "EPOCH": "2025-12-13T04:30:17.254944", "MEAN_MOTION": 14.27452619, "ECCENTRICITY": 0.01541089, "INCLINATION": 98.4385, "RA_OF_ASC_NODE": 325.4984, "ARG_OF_PERICENTER": 109.1484, "MEAN_ANOMALY": 314.8579, "EPHEMERIS_TYPE": 0, "CLASSIFICATION_TYPE": "U", "NORAD_CAT_ID": 31033, "ELEMENT_SET_NO": 999, "REV_AT_EPOCH": 97352, "BSTAR": 0.00027478325, "MEAN_MOTION_DOT": 7.23e-06, "MEAN_MOTION_DDOT": 0}, "tle": {"line1": "1 31033U 99025BEB 25347.18769971  .00000723  00000+0  27478-3 0  9996", "line2": "2 31033  98.4385 325.4984 0154108 109.1484 314.8579 14.27452619973524"}}, "geometry": {"type": "Point", "coordinates": [-138.90229034701875, 81.24277446590048]}}, {"type": "Feature", "properties": {"norad_id": 31036, "name": "FENGYUN 1C DEB", "group": "fengyun-1c-debris", "lat": 25.503195673002743, "lon": 90.56984200272278, "alt_km": 784.495279634888, "timestamp": "2025-12-14T07:33:19.758181+00:00", "meta": {"OBJECT_NAME": "FENGYUN 1C DEB", "OBJECT_ID": "1999-025BEE", "EPOCH": "2025-12-13T13:15:42.844608", "MEAN_MOTION": 14.49074986, "ECCENTRICITY": 0.01374809, "INCLINATION": 98.9152, "RA_OF_ASC_NODE": 94.0592, "ARG_OF_PERICENTER": 262.138, "MEAN_ANOMALY": 108.4902, "EPHEMERIS_TYPE": 0, "CLASSIFICATION_TYPE": "U", "NORAD_CAT_ID": 31036, "ELEMENT_SET_NO": 999, "REV_AT_EPOCH": 57319, "BSTAR": 0.00034934031, "MEAN_MOTION_DOT": 1.438e-05, "MEAN_MOTION_DDOT": 0}, "tle": {"line1": "1 31036U 99025BEE 25347.55257922  .00001438  00000+0  34934-3 0  9997", "line2": "2 31036  98.9152  94.0592 0137480 262.1380 108.4902 14.49074986573194"}}, "geometry": {"type": "Point", "coordinates": [90.56984200272278, 25.503195673002743]}}, {"type": "Feature", "properties": {"norad_id": 31038, "name": "FENGYUN 1C DEB", "group": "fengyun-1c-debris", "lat": 15.415012931178689, "lon": -105.06084033101895, "alt_km": 709.2636253962046, "timestamp": "2025-12-14T07:33:19.758191+00:00", "meta": {"OBJECT_NAME": "FENGYUN 1C DEB", "OBJECT_ID": "1999-025BEG", "EPOCH": "2025-12-13T10:51:37.410048", "MEAN_MOTION": 14.45830394, "ECCENTRICITY": 0.0084057, "INCLINATION": 99.0136, "RA_OF_ASC_NODE": 71.515, "ARG_OF_PERICENTER": 226.3321, "MEAN_ANOMALY": 133.088, "EPHEMERIS_TYPE": 0, "CLASSIFICATION_TYPE": "U", "NORAD_CAT_ID": 31038, "ELEMENT_SET_NO": 999, "REV_AT_EPOCH": 98245, "BSTAR": 0.00098566857, "MEAN_MOTION_DOT": 3.603e-05, "MEAN_MOTION_DDOT": 0}, "tle": {"line1": "1 31038U 99025BEG 25347.45251632  .00003603  00000+0  98567-3 0  9998", "line2": "2 31038  99.0136  71.5150 0084057 226.3321 133.0880 14.45830394982459"}}, "geometry": {"type": "Point", "coordinates": [-105.06084033101895, 15.415012931178689]}}]}